[
  {
    "OBJECT_NAME": "STARLINK-5791",
    "OBJECT_ID": "23090AX",
    "EPOCH": "2025-11-11T00:42:18.699840",
    "MEAN_MOTION": 15.02534734,
    "ECCENTRICITY": 0.0001107,
    "INCLINATION": 43.0028,
    "RA_OF_ASC_NODE": 186.4054,
    "ARG_OF_PERICENTER": 269.0531,
    "MEAN_ANOMALY": 91.0184,
    "EPHEMERIS_TYPE": 0,
    "CLASSIFICATION_TYPE": "U",
    "NORAD_CAT_ID": 57146,
    "ELEMENT_SET_NO": 999,
    "REV_AT_EPOCH": 13252,
    "BSTAR": 4.0326e-05,
    "MEAN_MOTION_DOT": 3.41e-06,
    "MEAN_MOTION_DDOT": 0.0,
    "TLE_LINE1": "1 57146U 23090AX  25315.02938310  .00000341  00000+0  40326-4 0  9995",
    "TLE_LINE2": "2 57146  43.0028 186.4054 0001107 269.0531  91.0184 15.02534734132525",
    "COMMENT": "Grouped by shell and plane from TLE"
  },
  {
    "OBJECT_NAME": "STARLINK-5765",
    "OBJECT_ID": "23090AY",
    "EPOCH": "2025-11-11T02:02:03.248448",
    "MEAN_MOTION": 15.02536827,
    "ECCENTRICITY": 0.0001181,
    "INCLINATION": 43.003,
    "RA_OF_ASC_NODE": 185.9603,
    "ARG_OF_PERICENTER": 276.299,
    "MEAN_ANOMALY": 83.7718,
    "EPHEMERIS_TYPE": 0,
    "CLASSIFICATION_TYPE": "U",
    "NORAD_CAT_ID": 57147,
    "ELEMENT_SET_NO": 999,
    "REV_AT_EPOCH": 13272,
    "BSTAR": 7.7747e-05,
    "MEAN_MOTION_DOT": 8.47e-06,
    "MEAN_MOTION_DDOT": 0.0,
    "TLE_LINE1": "1 57147U 23090AY  25315.08475982  .00000847  00000+0  77747-4 0  9991",
    "TLE_LINE2": "2 57147  43.0030 185.9603 0001181 276.2990  83.7718 15.02536827132722",
    "COMMENT": "Grouped by shell and plane from TLE"
  },
  {
    "OBJECT_NAME": "STARLINK-5788",
    "OBJECT_ID": "23090AZ",
    "EPOCH": "2025-11-11T00:16:44.639328",
    "MEAN_MOTION": 15.02544516,
    "ECCENTRICITY": 9.81e-05,
    "INCLINATION": 43.0029,
    "RA_OF_ASC_NODE": 186.2683,
    "ARG_OF_PERICENTER": 271.5834,
    "MEAN_ANOMALY": 88.4896,
    "EPHEMERIS_TYPE": 0,
    "CLASSIFICATION_TYPE": "U",
    "NORAD_CAT_ID": 57148,
    "ELEMENT_SET_NO": 999,
    "REV_AT_EPOCH": 13252,
    "BSTAR": 4.4307999999999997e-05,
    "MEAN_MOTION_DOT": 3.95e-06,
    "MEAN_MOTION_DDOT": 0.0,
    "TLE_LINE1": "1 57148U 23090AZ  25315.01162777  .00000395  00000+0  44308-4 0  9995",
    "TLE_LINE2": "2 57148  43.0029 186.2683 0000981 271.5834  88.4896 15.02544516132526",
    "COMMENT": "Grouped by shell and plane from TLE"
  },
  {
    "OBJECT_NAME": "STARLINK-5780",
    "OBJECT_ID": "23090BB",
    "EPOCH": "2025-11-11T00:37:31.134720",
    "MEAN_MOTION": 15.02547406,
    "ECCENTRICITY": 0.0001881,
    "INCLINATION": 43.0035,
    "RA_OF_ASC_NODE": 186.3781,
    "ARG_OF_PERICENTER": 261.3776,
    "MEAN_ANOMALY": 98.6853,
    "EPHEMERIS_TYPE": 0,
    "CLASSIFICATION_TYPE": "U",
    "NORAD_CAT_ID": 57150,
    "ELEMENT_SET_NO": 999,
    "REV_AT_EPOCH": 13271,
    "BSTAR": 4.5156000000000006e-05,
    "MEAN_MOTION_DOT": 4.06e-06,
    "MEAN_MOTION_DDOT": 0.0,
    "TLE_LINE1": "1 57150U 23090BB  25315.02605480  .00000406  00000+0  45156-4 0  9997",
    "TLE_LINE2": "2 57150  43.0035 186.3781 0001881 261.3776  98.6853 15.02547406132716",
    "COMMENT": "Grouped by shell and plane from TLE"
  },
  {
    "OBJECT_NAME": "STARLINK-5776",
    "OBJECT_ID": "23090BC",
    "EPOCH": "2025-11-11T00:35:55.055328",
    "MEAN_MOTION": 15.02538416,
    "ECCENTRICITY": 0.0001096,
    "INCLINATION": 43.0031,
    "RA_OF_ASC_NODE": 186.3705,
    "ARG_OF_PERICENTER": 269.9109,
    "MEAN_ANOMALY": 90.1608,
    "EPHEMERIS_TYPE": 0,
    "CLASSIFICATION_TYPE": "U",
    "NORAD_CAT_ID": 57151,
    "ELEMENT_SET_NO": 999,
    "REV_AT_EPOCH": 13271,
    "BSTAR": 9.5624e-05,
    "MEAN_MOTION_DOT": 1.088e-05,
    "MEAN_MOTION_DDOT": 0.0,
    "TLE_LINE1": "1 57151U 23090BC  25315.02494277  .00001088  00000+0  95624-4 0  9990",
    "TLE_LINE2": "2 57151  43.0031 186.3705 0001096 269.9109  90.1608 15.02538416132717",
    "COMMENT": "Grouped by shell and plane from TLE"
  },
  {
    "OBJECT_NAME": "STARLINK-6164",
    "OBJECT_ID": "23090BD",
    "EPOCH": "2025-11-11T00:40:42.482208",
    "MEAN_MOTION": 15.02540941,
    "ECCENTRICITY": 0.0001204,
    "INCLINATION": 43.0031,
    "RA_OF_ASC_NODE": 186.3959,
    "ARG_OF_PERICENTER": 272.2212,
    "MEAN_ANOMALY": 87.8492,
    "EPHEMERIS_TYPE": 0,
    "CLASSIFICATION_TYPE": "U",
    "NORAD_CAT_ID": 57152,
    "ELEMENT_SET_NO": 999,
    "REV_AT_EPOCH": 13271,
    "BSTAR": 0.00010947,
    "MEAN_MOTION_DOT": 1.276e-05,
    "MEAN_MOTION_DDOT": 0.0,
    "TLE_LINE1": "1 57152U 23090BD  25315.02826947  .00001276  00000+0  10947-3 0  9997",
    "TLE_LINE2": "2 57152  43.0031 186.3959 0001204 272.2212  87.8492 15.02540941132712",
    "COMMENT": "Grouped by shell and plane from TLE"
  },
  {
    "OBJECT_NAME": "STARLINK-6106",
    "OBJECT_ID": "23090BF",
    "EPOCH": "2025-11-11T00:27:55.637280",
    "MEAN_MOTION": 15.02537836,
    "ECCENTRICITY": 0.0001235,
    "INCLINATION": 43.0029,
    "RA_OF_ASC_NODE": 186.3269,
    "ARG_OF_PERICENTER": 274.372,
    "MEAN_ANOMALY": 85.6981,
    "EPHEMERIS_TYPE": 0,
    "CLASSIFICATION_TYPE": "U",
    "NORAD_CAT_ID": 57154,
    "ELEMENT_SET_NO": 999,
    "REV_AT_EPOCH": 13271,
    "BSTAR": 9.828300000000001e-05,
    "MEAN_MOTION_DOT": 1.124e-05,
    "MEAN_MOTION_DDOT": 0.0,
    "TLE_LINE1": "1 57154U 23090BF  25315.01939395  .00001124  00000+0  98283-4 0  9992",
    "TLE_LINE2": "2 57154  43.0029 186.3269 0001235 274.3720  85.6981 15.02537836132714",
    "COMMENT": "Grouped by shell and plane from TLE"
  },
  {
    "OBJECT_NAME": "STARLINK-6108",
    "OBJECT_ID": "23090BG",
    "EPOCH": "2025-11-11T01:42:52.572384",
    "MEAN_MOTION": 15.02534823,
    "ECCENTRICITY": 0.0001301,
    "INCLINATION": 43.0028,
    "RA_OF_ASC_NODE": 185.8619,
    "ARG_OF_PERICENTER": 265.533,
    "MEAN_ANOMALY": 94.5363,
    "EPHEMERIS_TYPE": 0,
    "CLASSIFICATION_TYPE": "U",
    "NORAD_CAT_ID": 57155,
    "ELEMENT_SET_NO": 999,
    "REV_AT_EPOCH": 13272,
    "BSTAR": 4.1155e-05,
    "MEAN_MOTION_DOT": 3.52e-06,
    "MEAN_MOTION_DDOT": 0.0,
    "TLE_LINE1": "1 57155U 23090BG  25315.07144181  .00000352  00000+0  41155-4 0  9998",
    "TLE_LINE2": "2 57155  43.0028 185.8619 0001301 265.5330  94.5363 15.02534823132727",
    "COMMENT": "Grouped by shell and plane from TLE"
  },
  {
    "OBJECT_NAME": "STARLINK-6137",
    "OBJECT_ID": "23090BH",
    "EPOCH": "2025-11-11T00:11:57.451776",
    "MEAN_MOTION": 15.02498186,
    "ECCENTRICITY": 8.42e-05,
    "INCLINATION": 43.0044,
    "RA_OF_ASC_NODE": 186.245,
    "ARG_OF_PERICENTER": 262.4407,
    "MEAN_ANOMALY": 97.6339,
    "EPHEMERIS_TYPE": 0,
    "CLASSIFICATION_TYPE": "U",
    "NORAD_CAT_ID": 57156,
    "ELEMENT_SET_NO": 999,
    "REV_AT_EPOCH": 13271,
    "BSTAR": 0.0006395999999999999,
    "MEAN_MOTION_DOT": 8.438e-05,
    "MEAN_MOTION_DDOT": 0.0,
    "TLE_LINE1": "1 57156U 23090BH  25315.00830384  .00008438  00000+0  63960-3 0  9999",
    "TLE_LINE2": "2 57156  43.0044 186.2450 0000842 262.4407  97.6339 15.02498186132711",
    "COMMENT": "Grouped by shell and plane from TLE"
  },
  {
    "OBJECT_NAME": "STARLINK-30189",
    "OBJECT_ID": "23105A",
    "EPOCH": "2025-11-11T02:00:34.696224",
    "MEAN_MOTION": 15.02543495,
    "ECCENTRICITY": 0.0001328,
    "INCLINATION": 43.0029,
    "RA_OF_ASC_NODE": 186.5971,
    "ARG_OF_PERICENTER": 274.9,
    "MEAN_ANOMALY": 85.1691,
    "EPHEMERIS_TYPE": 0,
    "CLASSIFICATION_TYPE": "U",
    "NORAD_CAT_ID": 57430,
    "ELEMENT_SET_NO": 999,
    "REV_AT_EPOCH": 12767,
    "BSTAR": 0.00016979,
    "MEAN_MOTION_DOT": 2.091e-05,
    "MEAN_MOTION_DDOT": 0.0,
    "TLE_LINE1": "1 57430U 23105A   25315.08373491  .00002091  00000+0  16979-3 0  9997",
    "TLE_LINE2": "2 57430  43.0029 186.5971 0001328 274.9000  85.1691 15.02543495127673",
    "COMMENT": "Grouped by shell and plane from TLE"
  },
  {
    "OBJECT_NAME": "STARLINK-30188",
    "OBJECT_ID": "23105C",
    "EPOCH": "2025-11-11T00:15:15.901344",
    "MEAN_MOTION": 15.02534105,
    "ECCENTRICITY": 0.0001234,
    "INCLINATION": 43.0038,
    "RA_OF_ASC_NODE": 186.9078,
    "ARG_OF_PERICENTER": 267.924,
    "MEAN_ANOMALY": 92.1461,
    "EPHEMERIS_TYPE": 0,
    "CLASSIFICATION_TYPE": "U",
    "NORAD_CAT_ID": 57432,
    "ELEMENT_SET_NO": 999,
    "REV_AT_EPOCH": 12767,
    "BSTAR": 0.00019613,
    "MEAN_MOTION_DOT": 2.447e-05,
    "MEAN_MOTION_DDOT": 0.0,
    "TLE_LINE1": "1 57432U 23105C   25315.01060071  .00002447  00000+0  19613-3 0  9992",
    "TLE_LINE2": "2 57432  43.0038 186.9078 0001234 267.9240  92.1461 15.02534105127672",
    "COMMENT": "Grouped by shell and plane from TLE"
  },
  {
    "OBJECT_NAME": "STARLINK-30102",
    "OBJECT_ID": "23105E",
    "EPOCH": "2025-11-11T00:05:41.948736",
    "MEAN_MOTION": 15.02543949,
    "ECCENTRICITY": 5.87e-05,
    "INCLINATION": 43.0004,
    "RA_OF_ASC_NODE": 186.8572,
    "ARG_OF_PERICENTER": 292.2161,
    "MEAN_ANOMALY": 67.8619,
    "EPHEMERIS_TYPE": 0,
    "CLASSIFICATION_TYPE": "U",
    "NORAD_CAT_ID": 57434,
    "ELEMENT_SET_NO": 999,
    "REV_AT_EPOCH": 12765,
    "BSTAR": 0.0,
    "MEAN_MOTION_DOT": -1.222e-05,
    "MEAN_MOTION_DDOT": 0.0,
    "TLE_LINE1": "1 57434U 23105E   25315.00395774 -.00001222  00000+0 -75381-4 0  9991",
    "TLE_LINE2": "2 57434  43.0004 186.8572 0000587 292.2161  67.8619 15.02543949127656",
    "COMMENT": "Grouped by shell and plane from TLE"
  },
  {
    "OBJECT_NAME": "STARLINK-30237",
    "OBJECT_ID": "23105H",
    "EPOCH": "2025-11-10T23:51:17.314560",
    "MEAN_MOTION": 15.02532808,
    "ECCENTRICITY": 0.0001308,
    "INCLINATION": 43.003,
    "RA_OF_ASC_NODE": 186.7823,
    "ARG_OF_PERICENTER": 260.4046,
    "MEAN_ANOMALY": 99.6649,
    "EPHEMERIS_TYPE": 0,
    "CLASSIFICATION_TYPE": "U",
    "NORAD_CAT_ID": 57437,
    "ELEMENT_SET_NO": 999,
    "REV_AT_EPOCH": 12770,
    "BSTAR": 6.221400000000001e-05,
    "MEAN_MOTION_DOT": 6.37e-06,
    "MEAN_MOTION_DDOT": 0.0,
    "TLE_LINE1": "1 57437U 23105H   25314.99395040  .00000637  00000+0  62214-4 0  9995",
    "TLE_LINE2": "2 57437  43.0030 186.7823 0001308 260.4046  99.6649 15.02532808127701",
    "COMMENT": "Grouped by shell and plane from TLE"
  }
]